ONEWEB-0275             
1 48993U 21060AC  25193.67500498  .00000044  00000+0  82210-4 0  9995
2 48993  87.9060 296.4499 0002082 101.8257 258.3107 13.16593523194888
ONEWEB-0276             
1 48994U 21060AD  25193.55626139 -.00000024  00000+0 -96957-4 0  9997
2 48994  87.9057 296.4702 0002184  94.9341 265.2039 13.16595084194886
ONEWEB-0277             
1 48995U 21060AE  25193.72093213  .00000064  00000+0  13487-3 0  9996
2 48995  87.9056 296.4725 0002436 100.2578 259.8828 13.16594012194890
ONEWEB-0278             
1 48996U 21060AF  25193.55943746  .00000023  00000+0  27388-4 0  9994
2 48996  87.9059 296.4664 0001877  94.2163 265.9182 13.16594041195003
ONEWEB-0279             
1 48997U 21060AG  25193.71933772  .00000019  00000+0  16193-4 0  9998
2 48997  87.9057 296.4304 0002341 103.2407 256.8985 13.16594800194958
ONEWEB-0280             
1 48998U 21060AH  25193.73437697  .00000120  00000+0  27932-3 0  9991
2 48998  87.9060 296.4344 0002199  90.7467 269.3916 13.16595803194894
ONEWEB-0281             
1 48999U 21060AJ  25193.73991151 -.00000120  00000+0 -34820-3 0  9998
2 48999  87.9057 296.4308 0001951 104.6929 255.4418 13.16594284194967
ONEWEB-0282             
1 49000U 21060AK  25193.54202261  .00000031  00000+0  48120-4 0  9996
2 49000  87.9053 296.4824 0002150  97.0595 263.0780 13.16594974194914
